[{"OBJECT_NAME":"FFLY03","OBJECT_ID":"2025-188E","EPOCH":"2026-03-09T23:48:31.208832","MEAN_MOTION":14.92857001,"ECCENTRICITY":0.00085476,"INCLINATION":97.7385,"RA_OF_ASC_NODE":145.8163,"ARG_OF_PERICENTER":76.1578,"MEAN_ANOMALY":284.0592,"EPHEMERIS_TYPE":0,"CLASSIFICATION_TYPE":"U","NORAD_CAT_ID":65319,"ELEMENT_SET_NO":999,"REV_AT_EPOCH":2911,"BSTAR":0.00017967425,"MEAN_MOTION_DOT":1.806e-5,"MEAN_MOTION_DDOT":0},{"OBJECT_NAME":"UK-DMC","OBJECT_ID":"2003-042D","EPOCH":"2026-03-09T11:57:51.003072","MEAN_MOTION":14.8677093,"ECCENTRICITY":0.0054153,"INCLINATION":98.0812,"RA_OF_ASC_NODE":255.9431,"ARG_OF_PERICENTER":168.0294,"MEAN_ANOMALY":192.2222,"EPHEMERIS_TYPE":0,"CLASSIFICATION_TYPE":"U","NORAD_CAT_ID":27942,"ELEMENT_SET_NO":999,"REV_AT_EPOCH":20795,"BSTAR":0.00022518854,"MEAN_MOTION_DOT":1.999e-5,"MEAN_MOTION_DDOT":0}]
